QZS-1R                  
1 49336U 21096A   24091.88365484 -.00000201  00000+0  00000+0 0  9997
2 49336  35.7844  91.6981 0751139 269.9472 280.6244  1.00285921  8919
